start=new Date('2023-06-19T00:00:00.000Z').valueOf();
sats=[{"MEAN_ELEMENT_THEORY":"SGP4","SEMIMAJOR_AXIS":"6917.894","LAUNCH_DATE":"2022-02-21","PERIAPSIS":"538.866","ECCENTRICITY":"0.00012910","OBJECT_NAME":"STARLINK-3457","MEAN_MOTION_DDOT":"0.0000000000000","ELEMENT_SET_NO":"999","TIME_SYSTEM":"UTC","APOAPSIS":"540.652","SITE":"AFETR","GP_ID":"234212708","EPOCH":"2023-06-18T05:05:11.990112","NORAD_CAT_ID":"51754","REV_AT_EPOCH":"7342","DECAY_DATE":null,"CLASSIFICATION_TYPE":"U","BSTAR":"-0.00009593700000","TLE_LINE1":"1 51754U 22016AS  23169.21194433 -.00001814  00000-0 -95937-4 0  9994","PERIOD":"95.438","FILE":"3936420","RCS_SIZE":"LARGE","EPHEMERIS_TYPE":"0","OBJECT_ID":"2022-016AS","MEAN_MOTION_DOT":"-0.00001814","MEAN_MOTION":"15.08835665","TLE_LINE2":"2 51754  53.2176  97.7464 0001291 112.3914 247.7215 15.08835665 73420","ARG_OF_PERICENTER":"112.3914","INCLINATION":"53.2176","COUNTRY_CODE":"US","OBJECT_TYPE":"PAYLOAD","MEAN_ANOMALY":"247.7215","RA_OF_ASC_NODE":"97.7464","CENTER_NAME":"EARTH","REF_FRAME":"TEME"},{"FILE":"3936708","RCS_SIZE":"LARGE","EPHEMERIS_TYPE":"0","OBJECT_ID":"2022-016AT","MEAN_MOTION_DOT":"-0.00001047","MEAN_MOTION":"15.08831220","ARG_OF_PERICENTER":"94.3468","TLE_LINE2":"2 51755  53.2169  96.6883 0001115  94.3468 265.7651 15.08831220 74578","INCLINATION":"53.2169","COUNTRY_CODE":"US","OBJECT_TYPE":"PAYLOAD","MEAN_ANOMALY":"265.7651","RA_OF_ASC_NODE":"96.6883","CENTER_NAME":"EARTH","REF_FRAME":"TEME","SITE":"AFETR","GP_ID":"234222741","EPOCH":"2023-06-18T12:03:53.273952","NORAD_CAT_ID":"51755","REV_AT_EPOCH":"7457","CLASSIFICATION_TYPE":"U","DECAY_DATE":null,"BSTAR":"-0.00004771700000","TLE_LINE1":"1 51755U 22016AT  23169.50269993 -.00001047  00000-0 -47717-4 0  9992","PERIOD":"95.438","OBJECT_NAME":"STARLINK-3460","MEAN_MOTION_DDOT":"0.0000000000000","ELEMENT_SET_NO":"999","TIME_SYSTEM":"UTC","APOAPSIS":"540.544","MEAN_ELEMENT_THEORY":"SGP4","SEMIMAJOR_AXIS":"6917.907","LAUNCH_DATE":"2022-02-21","PERIAPSIS":"539.001","ECCENTRICITY":"0.00011150"},{"ECCENTRICITY":"0.00013990","LAUNCH_DATE":"2022-02-21","PERIAPSIS":"538.788","MEAN_ELEMENT_THEORY":"SGP4","SEMIMAJOR_AXIS":"6917.890","APOAPSIS":"540.723","TIME_SYSTEM":"UTC","OBJECT_NAME":"STARLINK-3513","MEAN_MOTION_DDOT":"0.0000000000000","ELEMENT_SET_NO":"999","REV_AT_EPOCH":"7342","CLASSIFICATION_TYPE":"U","DECAY_DATE":null,"TLE_LINE1":"1 51756U 22016AU  23169.20829315 -.00001091  00000-0 -50485-4 0  9995","BSTAR":"-0.00005048500000","PERIOD":"95.438","SITE":"AFETR","NORAD_CAT_ID":"51756","GP_ID":"234211707","EPOCH":"2023-06-18T04:59:56.528160","ARG_OF_PERICENTER":"101.7072","TLE_LINE2":"2 51756  53.2175  98.0075 0001399 101.7072 258.4077 15.08836744 73423","INCLINATION":"53.2175","OBJECT_TYPE":"PAYLOAD","MEAN_ANOMALY":"258.4077","RA_OF_ASC_NODE":"98.0075","COUNTRY_CODE":"US","REF_FRAME":"TEME","CENTER_NAME":"EARTH","RCS_SIZE":"LARGE","FILE":"3936420","OBJECT_ID":"2022-016AU","EPHEMERIS_TYPE":"0","MEAN_MOTION_DOT":"-0.00001091","MEAN_MOTION":"15.08836744"},{"ECCENTRICITY":"0.00010990","PERIAPSIS":"538.986","LAUNCH_DATE":"2022-02-21","MEAN_ELEMENT_THEORY":"SGP4","SEMIMAJOR_AXIS":"6917.881","APOAPSIS":"540.507","TIME_SYSTEM":"UTC","OBJECT_NAME":"STARLINK-3459","MEAN_MOTION_DDOT":"0.0000000000000","ELEMENT_SET_NO":"999","REV_AT_EPOCH":"7351","CLASSIFICATION_TYPE":"U","DECAY_DATE":null,"TLE_LINE1":"1 51757U 22016AV  23169.80172624  .00000296  00000-0  36663-4 0  9992","BSTAR":"0.00003666300000","PERIOD":"95.438","SITE":"AFETR","NORAD_CAT_ID":"51757","GP_ID":"234246423","EPOCH":"2023-06-18T19:14:29.147136","ARG_OF_PERICENTER":"89.1708","TLE_LINE2":"2 51757  53.2173  95.3559 0001099  89.1708 270.9410 15.08839662 73513","INCLINATION":"53.2173","RA_OF_ASC_NODE":"95.3559","OBJECT_TYPE":"PAYLOAD","MEAN_ANOMALY":"270.9410","COUNTRY_CODE":"US","REF_FRAME":"TEME","CENTER_NAME":"EARTH","RCS_SIZE":"LARGE","FILE":"3936745","EPHEMERIS_TYPE":"0","OBJECT_ID":"2022-016AV","MEAN_MOTION_DOT":"0.00000296","MEAN_MOTION":"15.08839662"},{"SEMIMAJOR_AXIS":"6917.884","MEAN_ELEMENT_THEORY":"SGP4","PERIAPSIS":"539.046","LAUNCH_DATE":"2022-02-21","ECCENTRICITY":"0.00010160","ELEMENT_SET_NO":"999","MEAN_MOTION_DDOT":"0.0000000000000","OBJECT_NAME":"STARLINK-3458","TIME_SYSTEM":"UTC","APOAPSIS":"540.452","GP_ID":"234246174","EPOCH":"2023-06-18T19:02:30.136704","NORAD_CAT_ID":"51758","SITE":"AFETR","PERIOD":"95.438","BSTAR":"0.00003060200000","TLE_LINE1":"1 51758U 22016AW  23169.79340436  .00000199  00000-0  30602-4 0  9998","CLASSIFICATION_TYPE":"U","DECAY_DATE":null,"REV_AT_EPOCH":"7465","MEAN_MOTION":"15.08838772","MEAN_MOTION_DOT":"0.00000199","EPHEMERIS_TYPE":"0","OBJECT_ID":"2022-016AW","FILE":"3936745","RCS_SIZE":"LARGE","CENTER_NAME":"EARTH","REF_FRAME":"TEME","COUNTRY_CODE":"US","MEAN_ANOMALY":"264.7873","OBJECT_TYPE":"PAYLOAD","RA_OF_ASC_NODE":"95.3364","INCLINATION":"53.2180","ARG_OF_PERICENTER":"95.3235","TLE_LINE2":"2 51758  53.2180  95.3364 0001016  95.3235 264.7873 15.08838772 74650"},{"RCS_SIZE":"LARGE","FILE":"3936745","EPHEMERIS_TYPE":"0","OBJECT_ID":"2022-016AX","MEAN_MOTION_DOT":"0.00004039","MEAN_MOTION":"15.08822047","TLE_LINE2":"2 51759  53.2174  95.3655 0001204  84.2696 275.8434 15.08822047 73512","ARG_OF_PERICENTER":"84.2696","INCLINATION":"53.2174","RA_OF_ASC_NODE":"95.3655","OBJECT_TYPE":"PAYLOAD","MEAN_ANOMALY":"275.8434","COUNTRY_CODE":"US","REF_FRAME":"TEME","CENTER_NAME":"EARTH","SITE":"AFETR","NORAD_CAT_ID":"51759","GP_ID":"234246923","EPOCH":"2023-06-18T19:07:49.039968","REV_AT_EPOCH":"7351","CLASSIFICATION_TYPE":"U","DECAY_DATE":null,"TLE_LINE1":"1 51759U 22016AX  23169.79709537  .00004039  00000-0  27182-3 0  9995","BSTAR":"0.00027182000000","PERIOD":"95.439","OBJECT_NAME":"STARLINK-3456","MEAN_MOTION_DDOT":"0.0000000000000","ELEMENT_SET_NO":"999","APOAPSIS":"540.633","TIME_SYSTEM":"UTC","MEAN_ELEMENT_THEORY":"SGP4","SEMIMAJOR_AXIS":"6917.935","ECCENTRICITY":"0.00012040","PERIAPSIS":"538.967","LAUNCH_DATE":"2022-02-21"},{"PERIOD":"95.438","TLE_LINE1":"1 51768U 22017A   23169.29753254 -.00000920  00000-0 -39702-4 0  9995","BSTAR":"-0.00003970200000","CLASSIFICATION_TYPE":"U","DECAY_DATE":null,"REV_AT_EPOCH":"7377","NORAD_CAT_ID":"51768","GP_ID":"234211208","EPOCH":"2023-06-18T07:08:26.811456","SITE":"AFWTR","REF_FRAME":"TEME","CENTER_NAME":"EARTH","OBJECT_TYPE":"PAYLOAD","MEAN_ANOMALY":"261.5115","RA_OF_ASC_NODE":"127.6051","COUNTRY_CODE":"US","INCLINATION":"53.2169","TLE_LINE2":"2 51768  53.2169 127.6051 0001370  98.6032 261.5115 15.08834606 73772","ARG_OF_PERICENTER":"98.6032","MEAN_MOTION":"15.08834606","MEAN_MOTION_DOT":"-0.00000920","EPHEMERIS_TYPE":"0","OBJECT_ID":"2022-017A","RCS_SIZE":"LARGE","FILE":"3936420","ECCENTRICITY":"0.00013700","LAUNCH_DATE":"2022-02-25","PERIAPSIS":"538.814","SEMIMAJOR_AXIS":"6917.897","MEAN_ELEMENT_THEORY":"SGP4","APOAPSIS":"540.710","TIME_SYSTEM":"UTC","ELEMENT_SET_NO":"999","MEAN_MOTION_DDOT":"0.0000000000000","OBJECT_NAME":"STARLINK-3622"},{"OBJECT_ID":"2022-017B","EPHEMERIS_TYPE":"0","FILE":"3936420","RCS_SIZE":"LARGE","MEAN_MOTION":"15.08850854","MEAN_MOTION_DOT":"0.00000425","INCLINATION":"53.2172","ARG_OF_PERICENTER":"96.4770","TLE_LINE2":"2 51769  53.2172 127.6368 0001413  96.4770 263.6383 15.08850854 72335","CENTER_NAME":"EARTH","REF_FRAME":"TEME","COUNTRY_CODE":"US","OBJECT_TYPE":"PAYLOAD","MEAN_ANOMALY":"263.6383","RA_OF_ASC_NODE":"127.6368","SITE":"AFWTR","GP_ID":"234211458","EPOCH":"2023-06-18T06:57:49.972608","NORAD_CAT_ID":"51769","DECAY_DATE":null,"CLASSIFICATION_TYPE":"U","REV_AT_EPOCH":"7233","PERIOD":"95.437","BSTAR":"0.00004475200000","TLE_LINE1":"1 51769U 22017B   23169.29016172  .00000425  00000-0  44752-4 0  9996","ELEMENT_SET_NO":"999","MEAN_MOTION_DDOT":"0.0000000000000","OBJECT_NAME":"STARLINK-3621","TIME_SYSTEM":"UTC","APOAPSIS":"540.690","SEMIMAJOR_AXIS":"6917.847","MEAN_ELEMENT_THEORY":"SGP4","LAUNCH_DATE":"2022-02-25","PERIAPSIS":"538.735","ECCENTRICITY":"0.00014130"},{"EPHEMERIS_TYPE":"0","OBJECT_ID":"2022-017C","FILE":"3936420","RCS_SIZE":"LARGE","MEAN_MOTION":"15.08844362","MEAN_MOTION_DOT":"0.00000590","INCLINATION":"53.2158","ARG_OF_PERICENTER":"103.2432","TLE_LINE2":"2 51770  53.2158 127.6238 0001343 103.2432 256.8710 15.08844362 72347","CENTER_NAME":"EARTH","REF_FRAME":"TEME","COUNTRY_CODE":"US","MEAN_ANOMALY":"256.8710","OBJECT_TYPE":"PAYLOAD","RA_OF_ASC_NODE":"127.6238","SITE":"AFWTR","EPOCH":"2023-06-18T07:03:08.300448","GP_ID":"234212709","NORAD_CAT_ID":"51770","CLASSIFICATION_TYPE":"U","DECAY_DATE":null,"REV_AT_EPOCH":"7234","PERIOD":"95.437","BSTAR":"0.00005516500000","TLE_LINE1":"1 51770U 22017C   23169.29384607  .00000590  00000-0  55165-4 0  9992","ELEMENT_SET_NO":"999","MEAN_MOTION_DDOT":"0.0000000000000","OBJECT_NAME":"STARLINK-3612","TIME_SYSTEM":"UTC","APOAPSIS":"540.661","SEMIMAJOR_AXIS":"6917.867","MEAN_ELEMENT_THEORY":"SGP4","PERIAPSIS":"538.803","LAUNCH_DATE":"2022-02-25","ECCENTRICITY":"0.00013430"},{"PERIOD":"95.438","TLE_LINE1":"1 51771U 22017D   23169.88360828 -.00000116  00000-0  10821-4 0  9992","BSTAR":"0.00001082100000","DECAY_DATE":null,"CLASSIFICATION_TYPE":"U","REV_AT_EPOCH":"7242","NORAD_CAT_ID":"51771","EPOCH":"2023-06-18T21:12:23.755392","GP_ID":"234247423","SITE":"AFWTR","REF_FRAME":"TEME","CENTER_NAME":"EARTH","RA_OF_ASC_NODE":"124.9743","OBJECT_TYPE":"PAYLOAD","MEAN_ANOMALY":"268.0752","COUNTRY_CODE":"US","INCLINATION":"53.2166","ARG_OF_PERICENTER":"92.0375","TLE_LINE2":"2 51771  53.2166 124.9743 0001179  92.0375 268.0752 15.08836927 72424","MEAN_MOTION":"15.08836927","MEAN_MOTION_DOT":"-0.00000116","OBJECT_ID":"2022-017D","EPHEMERIS_TYPE":"0","RCS_SIZE":"LARGE","FILE":"3936745","ECCENTRICITY":"0.00011790","LAUNCH_DATE":"2022-02-25","PERIAPSIS":"538.939","SEMIMAJOR_AXIS":"6917.890","MEAN_ELEMENT_THEORY":"SGP4","APOAPSIS":"540.570","TIME_SYSTEM":"UTC","ELEMENT_SET_NO":"999","MEAN_MOTION_DDOT":"0.0000000000000","OBJECT_NAME":"STARLINK-3614"}];
